[{"OBJECT_NAME":"AETHER-11","OBJECT_ID":"2026-004V","EPOCH":"2026-03-09T21:44:33.405216","MEAN_MOTION":14.88107739,"ECCENTRICITY":0.00061342,"INCLINATION":97.803,"RA_OF_ASC_NODE":69.143,"ARG_OF_PERICENTER":88.5801,"MEAN_ANOMALY":271.6118,"EPHEMERIS_TYPE":0,"CLASSIFICATION_TYPE":"U","NORAD_CAT_ID":67382,"ELEMENT_SET_NO":999,"REV_AT_EPOCH":852,"BSTAR":0.00016474653,"MEAN_MOTION_DOT":1.462e-5,"MEAN_MOTION_DDOT":0},{"OBJECT_NAME":"ATLAS 28E R\/B","OBJECT_ID":"1990-031D","EPOCH":"2026-03-09T13:40:28.718976","MEAN_MOTION":14.80148972,"ECCENTRICITY":0.0058493,"INCLINATION":89.8623,"RA_OF_ASC_NODE":258.1521,"ARG_OF_PERICENTER":172.6422,"MEAN_ANOMALY":187.5674,"EPHEMERIS_TYPE":0,"CLASSIFICATION_TYPE":"U","NORAD_CAT_ID":20563,"ELEMENT_SET_NO":999,"REV_AT_EPOCH":35581,"BSTAR":0.00023423,"MEAN_MOTION_DOT":1.847e-5,"MEAN_MOTION_DDOT":0}]
